{
    "links": {
        "self": "http://www.neowsapp.com/rest/v1/neo/3472371?api_key=iIulBulltgU6a56xZRHN4H3l9WmuAYTsLGpBGhQ2"
    },
    "id": "3472371",
    "neo_reference_id": "3472371",
    "name": "(2009 UU19)",
    "designation": "2009 UU19",
    "nasa_jpl_url": "http://ssd.jpl.nasa.gov/sbdb.cgi?sstr=3472371",
    "absolute_magnitude_h": 24.8,
    "estimated_diameter": {
        "kilometers": {
            "estimated_diameter_min": 0.0291443905,
            "estimated_diameter_max": 0.0651688382
        },
        "meters": {
            "estimated_diameter_min": 29.1443904535,
            "estimated_diameter_max": 65.1688382168
        },
        "miles": {
            "estimated_diameter_min": 0.018109479,
            "estimated_diameter_max": 0.0404940262
        },
        "feet": {
            "estimated_diameter_min": 95.6180819754,
            "estimated_diameter_max": 213.8085311752
        }
    },
    "is_potentially_hazardous_asteroid": false,
    "close_approach_data": [
        {
            "close_approach_date": "2009-10-15",
            "close_approach_date_full": "2009-Oct-15 00:28",
            "epoch_date_close_approach": 1255566480000,
            "relative_velocity": {
                "kilometers_per_second": "9.5590126478",
                "kilometers_per_hour": "34412.4455321562",
                "miles_per_hour": "21382.5553919112"
            },
            "miss_distance": {
                "astronomical": "0.1358864655",
                "lunar": "52.8598350795",
                "kilometers": "20328325.800628485",
                "miles": "12631435.925043693"
            },
            "orbiting_body": "Earth"
        }
    ],
    "orbital_data": {
        "orbit_id": "6",
        "orbit_determination_date": "2017-04-06 08:59:25",
        "first_observation_date": "2009-10-24",
        "last_observation_date": "2009-10-25",
        "data_arc_in_days": 1,
        "observations_used": 20,
        "orbit_uncertainty": "9",
        "minimum_orbit_intersection": ".135812",
        "jupiter_tisserand_invariant": "4.535",
        "epoch_osculation": "2455129.5",
        "eccentricity": ".237706388704281",
        "semi_major_axis": "1.465058733224364",
        "inclination": "17.46302981921814",
        "ascending_node_longitude": "207.8857082611435",
        "orbital_period": "647.7105639158012",
        "perihelion_distance": "1.116804912509932",
        "perihelion_argument": "154.8029229412038",
        "aphelion_distance": "1.813312553938796",
        "perihelion_time": "2455099.001271935410",
        "mean_anomaly": "16.95130929604489",
        "mean_motion": ".5558038112325708",
        "equinox": "J2000",
        "orbit_class": {
            "orbit_class_type": "AMO",
            "orbit_class_description": "Near-Earth asteroid orbits similar to that of 1221 Amor",
            "orbit_class_range": "1.017 AU < q (perihelion) < 1.3 AU"
        }
    },
    "is_sentry_object": false
}